ALOS (DAICHI)           
1 28931U 06002A   25335.46007192  .00001837  00000+0  31865-3 0  9992
2 28931  98.1076 287.0284 0000721  98.4955 261.6332 14.69430633 59058
H-2A R/B                
1 28932U 06002B   25335.35442919  .00012529  00000+0  66494-3 0  9997
2 28932  98.2307 109.1763 0054474 215.0134 144.7509 15.14204601 79541
RESURS-DK 1             
1 29228U 06021A   25335.51845392  .00003866  00000+0  23031-3 0  9991
2 29228  69.9321 130.8334 0007800 266.7352  93.2921 15.12056991 72681
CZ-4B R/B               
1 29507U 06046C   25335.15053649  .00006148  00000+0  32223-3 0  9993
2 29507  97.5757  15.3209 0032687 247.9659 111.8100 15.15687410 45114
CZ-2C R/B               
1 31114U 07010B   25335.30535255  .00000190  00000+0  10658-3 0  9996
2 31114  98.3971  88.5319 0058376 219.4426 140.2495 14.20201946965756
COSMOS 2428             
1 31792U 07029A   25335.48149668 -.00000039  00000+0  49712-5 0  9994
2 31792  70.9374  49.5170 0003045  41.1337 319.0013 14.12886616950229
SL-16 R/B               
1 31793U 07029B   25335.51099409 -.00000157  00000+0 -56321-4 0  9991
2 31793  70.9772  18.7619 0002453 266.1785 204.7696 14.14816611951482
KORONAS-FOTON           
1 33504U 09003A   25335.19592867  .00015406  00000+0  37401-3 0  9995
2 33504  82.4327  18.0639 0012477 145.8146 214.3905 15.40807303930568
CZ-2C R/B               
1 37731U 11030B   25335.45445698  .00002241  00000+0  29073-3 0  9991
2 37731  97.8391 289.8126 0051877 311.3268 161.0496 14.80838218775557
H-2A R/B                
1 38341U 12025E   25335.45776965  .00003724  00000+0  34631-3 0  9991
2 38341  98.4576 289.8202 0043898 274.5386  85.0819 14.94326565733546
