CCSDS_OMM_VERS = 2.0
CREATION_DATE  = 
ORIGINATOR     = 

OBJECT_NAME    = ALOS (DAICHI)
OBJECT_ID      = 2006-002A
CENTER_NAME    = EARTH
REF_FRAME      = TEME
TIME_SYSTEM    = UTC
MEAN_ELEMENT_THEORY = SGP/SGP4

EPOCH          = 2025-12-01T11:02:30.213888
MEAN_MOTION    = 14.69430633
ECCENTRICITY   = .0000721
INCLINATION    = 98.1076
RA_OF_ASC_NODE = 287.0284
ARG_OF_PERICENTER = 98.4955
MEAN_ANOMALY   = 261.6332

EPHEMERIS_TYPE = 0
CLASSIFICATION_TYPE = U
NORAD_CAT_ID   = 28931
ELEMENT_SET_NO = 999
REV_AT_EPOCH   = 5905
BSTAR          = .31865E-3
MEAN_MOTION_DOT = .1837E-4
MEAN_MOTION_DDOT = 0

CCSDS_OMM_VERS = 2.0
CREATION_DATE  = 
ORIGINATOR     = 

OBJECT_NAME    = H-2A R/B
OBJECT_ID      = 2006-002B
CENTER_NAME    = EARTH
REF_FRAME      = TEME
TIME_SYSTEM    = UTC
MEAN_ELEMENT_THEORY = SGP/SGP4

EPOCH          = 2025-12-01T08:30:22.682016
MEAN_MOTION    = 15.14204601
ECCENTRICITY   = .0054474
INCLINATION    = 98.2307
RA_OF_ASC_NODE = 109.1763
ARG_OF_PERICENTER = 215.0134
MEAN_ANOMALY   = 144.7509

EPHEMERIS_TYPE = 0
CLASSIFICATION_TYPE = U
NORAD_CAT_ID   = 28932
ELEMENT_SET_NO = 999
REV_AT_EPOCH   = 7954
BSTAR          = .66494E-3
MEAN_MOTION_DOT = .12529E-3
MEAN_MOTION_DDOT = 0

CCSDS_OMM_VERS = 2.0
CREATION_DATE  = 
ORIGINATOR     = 

OBJECT_NAME    = RESURS-DK 1
OBJECT_ID      = 2006-021A
CENTER_NAME    = EARTH
REF_FRAME      = TEME
TIME_SYSTEM    = UTC
MEAN_ELEMENT_THEORY = SGP/SGP4

EPOCH          = 2025-12-01T12:26:34.418688
MEAN_MOTION    = 15.12056991
ECCENTRICITY   = .00078
INCLINATION    = 69.9321
RA_OF_ASC_NODE = 130.8334
ARG_OF_PERICENTER = 266.7352
MEAN_ANOMALY   = 93.2921

EPHEMERIS_TYPE = 0
CLASSIFICATION_TYPE = U
NORAD_CAT_ID   = 29228
ELEMENT_SET_NO = 999
REV_AT_EPOCH   = 7268
BSTAR          = .23031E-3
MEAN_MOTION_DOT = .3866E-4
MEAN_MOTION_DDOT = 0

CCSDS_OMM_VERS = 2.0
CREATION_DATE  = 
ORIGINATOR     = 

OBJECT_NAME    = CZ-4B R/B
OBJECT_ID      = 2006-046C
CENTER_NAME    = EARTH
REF_FRAME      = TEME
TIME_SYSTEM    = UTC
MEAN_ELEMENT_THEORY = SGP/SGP4

EPOCH          = 2025-12-01T03:36:46.352736
MEAN_MOTION    = 15.15687410
ECCENTRICITY   = .0032687
INCLINATION    = 97.5757
RA_OF_ASC_NODE = 15.3209
ARG_OF_PERICENTER = 247.9659
MEAN_ANOMALY   = 111.8100

EPHEMERIS_TYPE = 0
CLASSIFICATION_TYPE = U
NORAD_CAT_ID   = 29507
ELEMENT_SET_NO = 999
REV_AT_EPOCH   = 4511
BSTAR          = .32223E-3
MEAN_MOTION_DOT = .6148E-4
MEAN_MOTION_DDOT = 0

CCSDS_OMM_VERS = 2.0
CREATION_DATE  = 
ORIGINATOR     = 

OBJECT_NAME    = CZ-2C R/B
OBJECT_ID      = 2007-010B
CENTER_NAME    = EARTH
REF_FRAME      = TEME
TIME_SYSTEM    = UTC
MEAN_ELEMENT_THEORY = SGP/SGP4

EPOCH          = 2025-12-01T07:19:42.460320
MEAN_MOTION    = 14.20201946
ECCENTRICITY   = .00583764
INCLINATION    = 98.3971
RA_OF_ASC_NODE = 88.5319
ARG_OF_PERICENTER = 219.4426
MEAN_ANOMALY   = 140.2495

EPHEMERIS_TYPE = 0
CLASSIFICATION_TYPE = U
NORAD_CAT_ID   = 31114
ELEMENT_SET_NO = 999
REV_AT_EPOCH   = 96575
BSTAR          = .1065756E-3
MEAN_MOTION_DOT = .19E-5
MEAN_MOTION_DDOT = 0

CCSDS_OMM_VERS = 2.0
CREATION_DATE  = 
ORIGINATOR     = 

OBJECT_NAME    = COSMOS 2428
OBJECT_ID      = 2007-029A
CENTER_NAME    = EARTH
REF_FRAME      = TEME
TIME_SYSTEM    = UTC
MEAN_ELEMENT_THEORY = SGP/SGP4

EPOCH          = 2025-12-01T11:33:21.313152
MEAN_MOTION    = 14.12886616
ECCENTRICITY   = .0003045
INCLINATION    = 70.9374
RA_OF_ASC_NODE = 49.5170
ARG_OF_PERICENTER = 41.1337
MEAN_ANOMALY   = 319.0013

EPHEMERIS_TYPE = 0
CLASSIFICATION_TYPE = U
NORAD_CAT_ID   = 31792
ELEMENT_SET_NO = 999
REV_AT_EPOCH   = 95022
BSTAR          = .49712E-5
MEAN_MOTION_DOT = -.39E-6
MEAN_MOTION_DDOT = 0

CCSDS_OMM_VERS = 2.0
CREATION_DATE  = 
ORIGINATOR     = 

OBJECT_NAME    = SL-16 R/B
OBJECT_ID      = 2007-029B
CENTER_NAME    = EARTH
REF_FRAME      = TEME
TIME_SYSTEM    = UTC
MEAN_ELEMENT_THEORY = SGP/SGP4

EPOCH          = 2025-12-01T12:15:49.889376
MEAN_MOTION    = 14.14816611
ECCENTRICITY   = .0002453
INCLINATION    = 70.9772
RA_OF_ASC_NODE = 18.7619
ARG_OF_PERICENTER = 266.1785
MEAN_ANOMALY   = 204.7696

EPHEMERIS_TYPE = 0
CLASSIFICATION_TYPE = U
NORAD_CAT_ID   = 31793
ELEMENT_SET_NO = 999
REV_AT_EPOCH   = 95148
BSTAR          = -.56321E-4
MEAN_MOTION_DOT = -.157E-5
MEAN_MOTION_DDOT = 0

CCSDS_OMM_VERS = 2.0
CREATION_DATE  = 
ORIGINATOR     = 

OBJECT_NAME    = KORONAS-FOTON
OBJECT_ID      = 2009-003A
CENTER_NAME    = EARTH
REF_FRAME      = TEME
TIME_SYSTEM    = UTC
MEAN_ELEMENT_THEORY = SGP/SGP4

EPOCH          = 2025-12-01T04:42:08.237088
MEAN_MOTION    = 15.40807303
ECCENTRICITY   = .0012477
INCLINATION    = 82.4327
RA_OF_ASC_NODE = 18.0639
ARG_OF_PERICENTER = 145.8146
MEAN_ANOMALY   = 214.3905

EPHEMERIS_TYPE = 0
CLASSIFICATION_TYPE = U
NORAD_CAT_ID   = 33504
ELEMENT_SET_NO = 999
REV_AT_EPOCH   = 93056
BSTAR          = .37401E-3
MEAN_MOTION_DOT = .15406E-3
MEAN_MOTION_DDOT = 0

CCSDS_OMM_VERS = 2.0
CREATION_DATE  = 
ORIGINATOR     = 

OBJECT_NAME    = CZ-2C R/B
OBJECT_ID      = 2011-030B
CENTER_NAME    = EARTH
REF_FRAME      = TEME
TIME_SYSTEM    = UTC
MEAN_ELEMENT_THEORY = SGP/SGP4

EPOCH          = 2025-12-01T10:54:25.083072
MEAN_MOTION    = 14.80838218
ECCENTRICITY   = .0051877
INCLINATION    = 97.8391
RA_OF_ASC_NODE = 289.8126
ARG_OF_PERICENTER = 311.3268
MEAN_ANOMALY   = 161.0496

EPHEMERIS_TYPE = 0
CLASSIFICATION_TYPE = U
NORAD_CAT_ID   = 37731
ELEMENT_SET_NO = 999
REV_AT_EPOCH   = 77555
BSTAR          = .29073E-3
MEAN_MOTION_DOT = .2241E-4
MEAN_MOTION_DDOT = 0

CCSDS_OMM_VERS = 2.0
CREATION_DATE  = 
ORIGINATOR     = 

OBJECT_NAME    = H-2A R/B
OBJECT_ID      = 2012-025E
CENTER_NAME    = EARTH
REF_FRAME      = TEME
TIME_SYSTEM    = UTC
MEAN_ELEMENT_THEORY = SGP/SGP4

EPOCH          = 2025-12-01T10:59:11.297760
MEAN_MOTION    = 14.94326565
ECCENTRICITY   = .0043898
INCLINATION    = 98.4576
RA_OF_ASC_NODE = 289.8202
ARG_OF_PERICENTER = 274.5386
MEAN_ANOMALY   = 85.0819

EPHEMERIS_TYPE = 0
CLASSIFICATION_TYPE = U
NORAD_CAT_ID   = 38341
ELEMENT_SET_NO = 999
REV_AT_EPOCH   = 73354
BSTAR          = .34631E-3
MEAN_MOTION_DOT = .3724E-4
MEAN_MOTION_DDOT = 0

